CTC2_L_00434016-03
1 47939U 24997CU  26037.47795139  .00000000  00000+0  00000-0 0  9995
2 47939  50.0000 180.0000 0000000   0.0000   0.0000 12.41559219    18
CTC2_L_00434016-04
1 47940U 24820RR  26037.47795139  .00000000  00000+0  00000-0 0  9992
2 47940  50.0000 180.0000 0000000   0.0000  90.0000 12.41559219    19
CTC2_L_00434017-01
1 47941U 25949ZQ  26037.47795139  .00000000  00000+0  00000-0 0  9996
2 47941  50.0000 192.0000 0000000   0.0000 192.0000 12.41559219    16
CTC2_L_00434017-02
1 47942U 24751RU  26037.47795139  .00000000  00000+0  00000-0 0  9997
2 47942  50.0000 192.0000 0000000   0.0000 282.0000 12.41559219    17
CTC2_L_00434017-03
1 47943U 26825ZT  26037.47795139  .00000000  00000+0  00000-0 0  9992
2 47943  50.0000 192.0000 0000000   0.0000  12.0000 12.41559219    19
CTC2_L_00434017-04
1 47944U 24186ZT  26037.47795139  .00000000  00000+0  00000-0 0  9991
2 47944  50.0000 192.0000 0000000   0.0000 102.0000 12.41559219    10
CTC2_L_00434018-01
1 47945U 22710V   26037.47795139  .00000000  00000+0  00000-0 0  9993
2 47945  50.0000 204.0000 0000000   0.0000 204.0000 12.41559219    18
CTC2_L_00434018-02
1 47946U 22557HC  26037.47795139  .00000000  00000+0  00000-0 0  9993
2 47946  50.0000 204.0000 0000000   0.0000 294.0000 12.41559219    18
CTC2_L_00434018-03
1 47947U 22034UT  26037.47795139  .00000000  00000+0  00000-0 0  9994
2 47947  50.0000 204.0000 0000000   0.0000  24.0000 12.41559219    10
CTC2_L_00434018-04
1 47948U 23167VI  26037.47795139  .00000000  00000+0  00000-0 0  9993
2 47948  50.0000 204.0000 0000000   0.0000 114.0000 12.41559219    11
CTC2_L_00434019-01
1 47949U 24053XR  26037.47795139  .00000000  00000+0  00000-0 0  9999
2 47949  50.0000 216.0000 0000000   0.0000 216.0000 12.41559219    18
CTC2_L_00434019-02
1 47950U 24840PO  26037.47795139  .00000000  00000+0  00000-0 0  9995
2 47950  50.0000 216.0000 0000000   0.0000 306.0000 12.41559219    10
CTC2_L_00434019-03
1 47951U 24948GG  26037.47795139  .00000000  00000+0  00000-0 0  9995
2 47951  50.0000 216.0000 0000000   0.0000  36.0000 12.41559219    11
CTC2_L_00434019-04
1 47952U 25801JS  26037.47795139  .00000000  00000+0  00000-0 0  9995
2 47952  50.0000 216.0000 0000000   0.0000 126.0000 12.41559219    12
CTC2_L_00434020-01
1 47953U 22825CM  26037.47795139  .00000000  00000+0  00000-0 0  9999
2 47953  50.0000 228.0000 0000000   0.0000 228.0000 12.41559219    19
CTC2_L_00434020-02
1 47954U 25064AE  26037.47795139  .00000000  00000+0  00000-0 0  9998
2 47954  50.0000 228.0000 0000000   0.0000 318.0000 12.41559219    10
CTC2_L_00434020-03
1 47955U 26021YW  26037.47795139  .00000000  00000+0  00000-0 0  9993
2 47955  50.0000 228.0000 0000000   0.0000  48.0000 12.41559219    11
CTC2_L_00434020-04
1 47956U 24836AI  26037.47795139  .00000000  00000+0  00000-0 0  9996
2 47956  50.0000 228.0000 0000000   0.0000 138.0000 12.41559219    12
CTC2_L_00434021-01
1 47957U 25231BP  26037.47795139  .00000000  00000+0  00000-0 0  9997
2 47957  50.0000 240.0000 0000000   0.0000 240.0000 12.41559219    11
CTC2_L_00434021-02
1 47958U 22198MN  26037.47795139  .00000000  00000+0  00000-0 0  9997
2 47958  50.0000 240.0000 0000000   0.0000 330.0000 12.41559219    12
CTC2_L_00434021-03
1 47959U 24840IA  26037.47795139  .00000000  00000+0  00000-0 0  9994
2 47959  50.0000 240.0000 0000000   0.0000  60.0000 12.41559219    13
CTC2_L_00434021-04
1 47960U 26223RB  26037.47795139  .00000000  00000+0  00000-0 0  9993
2 47960  50.0000 240.0000 0000000   0.0000 150.0000 12.41559219    15
CTC2_L_00434022-01
1 47961U 24081MM  26037.47795139  .00000000  00000+0  00000-0 0  9994
2 47961  50.0000 252.0000 0000000   0.0000 252.0000 12.41559219    12
CTC2_L_00434022-02
1 47962U 24256XW  26037.47795139  .00000000  00000+0  00000-0 0  9999
2 47962  50.0000 252.0000 0000000   0.0000 342.0000 12.41559219    13
CTC2_L_00434022-03
1 47963U 23308OU  26037.47795139  .00000000  00000+0  00000-0 0  9997
2 47963  50.0000 252.0000 0000000   0.0000  72.0000 12.41559219    14
CTC2_L_00434022-04
1 47964U 23462CE  26037.47795139  .00000000  00000+0  00000-0 0  9999
2 47964  50.0000 252.0000 0000000   0.0000 162.0000 12.41559219    15
CTC2_L_00434023-01
1 47965U 24002XN  26037.47795139  .00000000  00000+0  00000-0 0  9991
2 47965  50.0000 264.0000 0000000   0.0000 264.0000 12.41559219    12
CTC2_L_00434023-02
1 47966U 25568MJ  26037.47795139  .00000000  00000+0  00000-0 0  9990
2 47966  50.0000 264.0000 0000000   0.0000 354.0000 12.41559219    13
CTC2_L_00434023-03
1 47967U 26469SQ  26037.47795139  .00000000  00000+0  00000-0 0  9992
2 47967  50.0000 264.0000 0000000   0.0000  84.0000 12.41559219    14
CTC2_L_00434023-04
1 47968U 24578LQ  26037.47795139  .00000000  00000+0  00000-0 0  9992
2 47968  50.0000 264.0000 0000000   0.0000 174.0000 12.41559219    15
CTC2_L_00434024-01
1 47969U 24557CQ  26037.47795139  .00000000  00000+0  00000-0 0  9990
2 47969  50.0000 276.0000 0000000   0.0000 276.0000 12.41559219    12
CTC2_L_00434024-02
1 47970U 26191TA  26037.47795139  .00000000  00000+0  00000-0 0  9998
2 47970  50.0000 276.0000 0000000   0.0000   6.0000 12.41559219    15
CTC2_L_00434024-03
1 47971U 24100TG  26037.47795139  .00000000  00000+0  00000-0 0  9997
2 47971  50.0000 276.0000 0000000   0.0000  96.0000 12.41559219    15
CTC2_L_00434024-04
1 47972U 23996BU  26037.47795139  .00000000  00000+0  00000-0 0  9990
2 47972  50.0000 276.0000 0000000   0.0000 186.0000 12.41559219    16
CTC2_L_00434025-01
1 47973U 25122JO  26037.47795139  .00000000  00000+0  00000-0 0  9994
2 47973  50.0000 288.0000 0000000   0.0000 288.0000 12.41559219    13
CTC2_L_00434025-02
1 47974U 26943GR  26037.47795139  .00000000  00000+0  00000-0 0  9997
2 47974  50.0000 288.0000 0000000   0.0000  18.0000 12.41559219    15
CTC2_L_00434025-03
1 47975U 24885ZF  26037.47795139  .00000000  00000+0  00000-0 0  9991
2 47975  50.0000 288.0000 0000000   0.0000 108.0000 12.41559219    16
CTC2_L_00434025-04
1 47976U 23569ZL  26037.47795139  .00000000  00000+0  00000-0 0  9990
2 47976  50.0000 288.0000 0000000   0.0000 198.0000 12.41559219    16
CTC2_L_00434026-01
1 47977U 26896IR  26037.47795139  .00000000  00000+0  00000-0 0  9997
2 47977  50.0000 300.0000 0000000   0.0000 300.0000 12.41559219    17
CTC2_L_00434026-02
1 47978U 25229KR  26037.47795139  .00000000  00000+0  00000-0 0  9997
2 47978  50.0000 300.0000 0000000   0.0000  30.0000 12.41559219    18
CTC2_L_00434026-03
1 47979U 26879Z   26037.47795139  .00000000  00000+0  00000-0 0  9990
2 47979  50.0000 300.0000 0000000   0.0000 120.0000 12.41559219    19
CTC2_L_00434026-04
1 47980U 26354XU  26037.47795139  .00000000  00000+0  00000-0 0  9990
2 47980  50.0000 300.0000 0000000   0.0000 210.0000 12.41559219    11
CTC2_L_00434027-01
1 47981U 26238QE  26037.47795139  .00000000  00000+0  00000-0 0  9992
2 47981  50.0000 312.0000 0000000   0.0000 312.0000 12.41559219    18
CTC2_L_00434027-02
1 47982U 24962OG  26037.47795139  .00000000  00000+0  00000-0 0  9995
2 47982  50.0000 312.0000 0000000   0.0000  42.0000 12.41559219    19
CTC2_L_00434027-03
1 47983U 22637PP  26037.47795139  .00000000  00000+0  00000-0 0  9993
2 47983  50.0000 312.0000 0000000   0.0000 132.0000 12.41559219    10
CTC2_L_00434027-04
1 47984U 22102DF  26037.47795139  .00000000  00000+0  00000-0 0  9991
2 47984  50.0000 312.0000 0000000   0.0000 222.0000 12.41559219    11
CTC2_L_00434028-01
1 47985U 24574XK  26037.47795139  .00000000  00000+0  00000-0 0  9997
2 47985  50.0000 324.0000 0000000   0.0000 324.0000 12.41559219    18
CTC2_L_00434028-02
1 47986U 23571UI  26037.47795139  .00000000  00000+0  00000-0 0  9994
2 47986  50.0000 324.0000 0000000   0.0000  54.0000 12.41559219    19
CTC2_L_00434028-03
1 47987U 24163AV  26037.47795139  .00000000  00000+0  00000-0 0  9993
2 47987  50.0000 324.0000 0000000   0.0000 144.0000 12.41559219    10
CTC2_L_00434028-04
1 47988U 24538OJ  26037.47795139  .00000000  00000+0  00000-0 0  9990
2 47988  50.0000 324.0000 0000000   0.0000 234.0000 12.41559219    11
CTC2_L_00434029-01
1 47989U 25985QS  26037.47795139  .00000000  00000+0  00000-0 0  9998
2 47989  50.0000 336.0000 0000000   0.0000 336.0000 12.41559219    18
CTC2_L_00434029-02
1 47990U 24040PQ  26037.47795139  .00000000  00000+0  00000-0 0  9991
2 47990  50.0000 336.0000 0000000   0.0000  66.0000 12.41559219    10
CTC2_L_00434029-03
1 47991U 23930PH  26037.47795139  .00000000  00000+0  00000-0 0  9999
2 47991  50.0000 336.0000 0000000   0.0000 156.0000 12.41559219    11
CTC2_L_00434029-04
1 47992U 23547BD  26037.47795139  .00000000  00000+0  00000-0 0  9994
2 47992  50.0000 336.0000 0000000   0.0000 246.0000 12.41559219    12
CTC2_L_00434030-01
1 47993U 22532NE  26037.47795139  .00000000  00000+0  00000-0 0  9998
2 47993  50.0000 348.0000 0000000   0.0000 348.0000 12.41559219    19
CTC2_L_00434030-02
1 47994U 22381YH  26037.47795139  .00000000  00000+0  00000-0 0  9991
2 47994  50.0000 348.0000 0000000   0.0000  78.0000 12.41559219    10
CTC2_L_00434030-03
1 47995U 24809SG  26037.47795139  .00000000  00000+0  00000-0 0  9999
2 47995  50.0000 348.0000 0000000   0.0000 168.0000 12.41559219    11
CTC2_L_00434030-04
1 47996U 23248SN  26037.47795139  .00000000  00000+0  00000-0 0  9996
2 47996  50.0000 348.0000 0000000   0.0000 258.0000 12.41559219    12
